OBJECT_NAME,OBJECT_ID,EPOCH,MEAN_MOTION,ECCENTRICITY,INCLINATION,RA_OF_ASC_NODE,ARG_OF_PERICENTER,MEAN_ANOMALY,EPHEMERIS_TYPE,CLASSIFICATION_TYPE,NORAD_CAT_ID,ELEMENT_SET_NO,REV_AT_EPOCH,BSTAR,MEAN_MOTION_DOT,MEAN_MOTION_DDOT
UM5-EOSAT,2024-149CR,2026-07-12T18:14:31.084800,15.01719853,.0009201,97.6776,272.2083,42.2047,317.9884,0,U,60555,999,10405,.17506E-3,.2218E-4,0
LASARSAT,2024-247Q,2026-07-12T23:54:51.799968,15.47948222,.0006977,44.9747,117.0092,149.4103,210.7196,0,U,62391,999,8731,.53151E-3,.28123E-3,0
CROCUBE,2024-247T,2026-07-11T23:51:35.008416,15.50022679,.00071113,44.9710,119.5598,151.4755,208.6527,0,U,62394,999,8719,.48357142E-3,.27505E-3,0
TEVEL2-4,2025-052D,2026-07-12T16:04:45.612768,15.35507888,.0003752,97.3881,90.1160,57.2753,302.8852,0,U,63213,999,7402,.3728E-3,.12793E-3,0
TEVEL2-5,2025-052E,2026-07-13T03:35:30.904800,15.35333367,.0003789,97.3876,90.5369,56.8499,303.3107,0,U,63214,999,7409,.34745E-3,.1185E-3,0
TEVEL2-6,2025-052F,2026-07-12T16:57:08.951904,15.35286777,.0003782,97.3879,90.0772,60.8657,299.2965,0,U,63215,999,7402,.3529E-3,.12019E-3,0
TEVEL2-1,2025-052H,2026-07-12T16:18:13.603104,15.34718554,.0004433,97.3853,89.6437,65.2904,294.8800,0,U,63217,999,7400,.34224E-3,.11444E-3,0
TEVEL2-3,2025-052J,2026-07-12T16:09:05.966208,15.34780805,.0004208,97.3855,89.6625,66.7009,293.4677,0,U,63218,999,7400,.35527E-3,.11907E-3,0
TEVEL2-2,2025-052K,2026-07-12T16:18:26.144064,15.34729067,.0004492,97.3850,89.6469,65.9197,294.2516,0,U,63219,999,7400,.34007E-3,.11375E-3,0
TEVEL2-9,2025-052AD,2026-07-13T03:32:14.287776,15.32691499,.0007832,97.3915,89.4327,62.8126,297.3913,0,U,63237,999,7400,.33505E-3,.10512E-3,0
TEVEL2-7,2025-052AE,2026-07-13T03:04:32.103840,15.32378299,.000788,97.3913,89.3184,62.4172,297.7869,0,U,63238,999,7399,.38867E-3,.1209E-3,0
TEVEL2-8,2025-052AF,2026-07-12T16:18:32.611104,15.32353925,.0007981,97.3914,88.8465,64.8281,295.3788,0,U,63239,999,7392,.37402E-3,.11622E-3,0
FORESAIL-1 PRIME,2025-276DS,2026-07-13T03:38:54.598848,15.18928427,.0003042,97.4194,266.9496,49.5627,310.5873,0,U,66778,999,3434,.14455E-3,.2951E-4,0
